OBJECT_NAME,OBJECT_ID,EPOCH,MEAN_MOTION,ECCENTRICITY,INCLINATION,RA_OF_ASC_NODE,ARG_OF_PERICENTER,MEAN_ANOMALY,EPHEMERIS_TYPE,CLASSIFICATION_TYPE,NORAD_CAT_ID,ELEMENT_SET_NO,REV_AT_EPOCH,BSTAR,MEAN_MOTION_DOT,MEAN_MOTION_DDOT
SL-8 R/B,1985-006B,2026-07-01T14:53:42.408672,14.37840337,.00191937,74.0455,51.5038,296.4729,92.8731,0,U,15483,999,17040,.63836622E-4,.166E-5,0
SL-12 R/B(2),1985-042D,2026-07-01T12:31:36.396192,14.22008541,.00369625,71.1062,207.2303,306.3005,163.4480,0,U,15772,999,13057,.17329354E-4,-.9E-7,0
SL-14 R/B,1985-069B,2026-07-01T07:19:05.780928,14.86526595,.00189981,82.5274,278.0889,171.3499,188.8049,0,U,15945,999,18971,.5262123E-4,.492E-5,0
SL-16 R/B,1985-097B,2026-07-01T11:10:12.203328,14.16614814,.00052489,71.0032,261.0183,79.8117,5.8031,0,U,16182,999,10334,.17216196E-4,-.13E-6,0
SL-14 R/B,1986-006B,2026-07-01T04:23:42.648864,14.86958299,.00747188,82.5271,152.9422,256.1193,103.1704,0,U,16496,999,16607,.52076369E-4,.515E-5,0
COSMOS 1743,1986-034A,2026-07-01T10:42:02.020608,15.68291665,.00048161,82.5282,313.5575,220.1251,139.9655,0,U,16719,999,19802,.58891693E-3,.66335E-3,0
SL-14 R/B,1986-046B,2026-07-01T11:58:06.530016,14.85681540,.00223254,82.4826,332.6511,208.5579,151.4416,0,U,16792,999,14330,.52315373E-4,.48E-5,0
SL-14 R/B,1986-055B,2026-07-01T07:25:23.131200,14.85732438,.0017845,82.5197,19.8541,319.9680,212.8821,0,U,16882,999,13623,.45231E-4,.418E-5,0
AJISAI (EGS),1986-061A,2026-07-01T14:07:07.981248,12.44516710,.00111368,50.0094,103.1119,217.2013,201.4018,0,U,16908,999,48218,-.67529643E-4,-.107E-5,0
SL-14 R/B,1987-024B,2026-07-01T11:46:38.722080,14.86223101,.0016841,82.5284,345.8045,241.5525,118.3996,0,U,17567,999,10503,.46529432E-4,.434E-5,0
COSMOS 1833,1987-027A,2026-07-01T04:41:22.377696,14.13060221,.0023344,70.9206,87.4253,31.7628,328.4896,0,U,17589,999,2635,.17019E-3,.271E-5,0
SL-16 R/B,1987-027B,2026-07-01T07:59:27.037248,14.17174755,.00069385,71.0033,37.0196,297.1336,62.9080,0,U,17590,999,3144,.77195115E-4,.108E-5,0
SL-14 R/B,1987-038B,2026-07-01T11:26:45.204576,14.85453719,.00201292,82.5003,189.6118,144.7179,215.5374,0,U,17912,999,9612,.4113224E-4,.38E-5,0
COSMOS 1844,1987-041A,2026-07-01T05:59:51.332352,14.14571483,.00321506,70.8975,154.6437,214.9774,144.9237,0,U,17973,999,1964,.20345529E-3,.344E-5,0
SL-14 R/B,1987-055B,2026-07-01T05:33:41.455584,14.85719989,.00205722,82.4985,241.9900,2.5733,357.5585,0,U,18153,999,8679,.43599005E-4,.404E-5,0
COSMOS 1867,1987-060A,2026-07-01T04:12:23.056704,14.31517253,.00168283,65.0117,348.8834,282.1409,77.7790,0,U,18187,999,3618,.25166979E-4,-.33E-6,0
SL-14 R/B,1988-001B,2026-07-01T05:38:01.355424,14.85619199,.00169556,82.5133,88.5584,219.1008,140.8984,0,U,18749,999,5888,.46645561E-4,.429E-5,0
COSMOS 1933,1988-020A,2026-07-01T09:36:45.882720,15.18809089,.00049846,82.5135,138.3598,142.7049,217.4532,0,U,18958,999,6748,.20925643E-3,.4385E-4,0
SL-3 R/B,1988-032B,2026-07-01T14:03:52.877952,15.20943305,.00250724,97.5261,165.6132,192.4528,167.6091,0,U,19046,999,6941,.19734548E-3,.4333E-4,0
SL-16 R/B,1988-039B,2026-07-01T10:11:31.115616,14.19630775,.00213783,71.0127,188.0524,171.4600,188.6894,0,U,19120,999,97452,.29274168E-4,.14E-6,0
COSMOS 1953,1988-050A,2026-07-01T01:54:27.431424,15.30168431,.00123527,82.5067,44.0233,83.8892,276.3755,0,U,19210,999,5511,.3073285E-3,.9023E-4,0
SL-8 R/B,1988-053B,2026-07-01T06:10:17.448096,14.38973019,.00192922,74.0476,263.1222,53.2704,5.3190,0,U,19257,999,99293,.8062645E-4,.223E-5,0
COSMOS 1975,1988-093A,2026-07-01T11:35:13.110432,15.29512320,.00123751,82.5186,3.3187,125.1428,235.0974,0,U,19573,999,3679,.26440029E-3,.7612E-4,0
SL-14 R/B,1988-093B,2026-07-01T06:44:44.949984,14.85752356,.00212492,82.5321,295.4134,26.2477,34.9398,0,U,19574,999,1788,.50362698E-4,.463E-5,0
SL-16 R/B,1988-102B,2026-07-01T11:38:49.213248,14.16169137,.00150679,71.0004,272.0540,205.6213,154.4165,0,U,19650,999,94300,.79539121E-4,.11E-5,0
INTERCOSMOS 24,1989-080A,2026-07-01T07:29:23.888256,12.59681487,.11879227,82.6050,30.4531,29.1588,337.0801,0,U,20261,999,68110,.20126313E-3,.705E-5,0
SL-14 R/B,1989-080C,2026-07-01T05:48:32.308704,12.50575687,.12283803,82.5943,100.2782,285.2291,61.6455,0,U,20262,999,67434,.48849276E-4,.161E-5,0
DELTA 1 R/B,1989-089B,2026-07-01T11:55:10.286112,14.50740346,.00703031,97.0633,11.7650,122.3273,238.4758,0,U,20323,999,91223,.90006343E-4,.331E-5,0
ARIANE 40 R/B,1990-005H,2026-07-01T10:17:23.669952,14.39934941,.00093656,98.2953,239.6017,216.4388,143.6164,0,U,20443,999,90917,.10385885E-3,.285E-5,0
DELTA 2 R/B(1),1990-008B,2026-06-30T23:45:29.569248,15.71023168,.0064292,35.5999,143.1719,244.5030,114.9051,0,U,20453,999,94387,.7216896E-3,.107603E-2,0
