SL-8 R/B                
1 15483U 85006B   26182.62062973  .00000166  00000+0  63837-4 0  9997
2 15483  74.0455  51.5038 0019193 296.4729  92.8731 14.37840337170404
SL-12 R/B(2)            
1 15772U 85042D   26182.52194903 -.00000009  00000+0  17329-4 0  9998
2 15772  71.1062 207.2303 0036962 306.3005 163.4480 14.22008541130570
SL-14 R/B               
1 15945U 85069B   26182.30492802  .00000492  00000+0  52621-4 0  9993
2 15945  82.5274 278.0889 0018998 171.3499 188.8049 14.86526595189710
SL-16 R/B               
1 16182U 85097B   26182.46541902 -.00000013  00000+0  17216-4 0  9992
2 16182  71.0032 261.0183 0005248  79.8117   5.8031 14.16614814103340
SL-14 R/B               
1 16496U 86006B   26182.18313251  .00000515  00000+0  52076-4 0  9993
2 16496  82.5271 152.9422 0074718 256.1193 103.1704 14.86958299166079
COSMOS 1743             
1 16719U 86034A   26182.44585672  .00066335  00000+0  58892-3 0  9992
2 16719  82.5282 313.5575 0004816 220.1251 139.9655 15.68291665198021
SL-14 R/B               
1 16792U 86046B   26182.49868669  .00000480  00000+0  52315-4 0  9995
2 16792  82.4826 332.6511 0022325 208.5579 151.4416 14.85681540143303
SL-14 R/B               
1 16882U 86055B   26182.30929550  .00000418  00000+0  45231-4 0  9992
2 16882  82.5197  19.8541 0017845 319.9680 212.8821 14.85732438136232
AJISAI (EGS)            
1 16908U 86061A   26182.58828682 -.00000107  00000+0 -67530-4 0  9995
2 16908  50.0094 103.1119 0011136 217.2013 201.4018 12.44516710482188
SL-14 R/B               
1 17567U 87024B   26182.49072595  .00000434  00000+0  46529-4 0  9997
2 17567  82.5284 345.8045 0016841 241.5525 118.3996 14.86223101105034
COSMOS 1833             
1 17589U 87027A   26182.19539789  .00000271  00000+0  17019-3 0  9994
2 17589  70.9206  87.4253 0023344  31.7628 328.4896 14.13060221 26354
SL-16 R/B               
1 17590U 87027B   26182.33295182  .00000108  00000+0  77195-4 0  9999
2 17590  71.0033  37.0196 0006938 297.1336  62.9080 14.17174755 31440
SL-14 R/B               
1 17912U 87038B   26182.47691209  .00000380  00000+0  41132-4 0  9998
2 17912  82.5003 189.6118 0020129 144.7179 215.5374 14.85453719 96123
COSMOS 1844             
1 17973U 87041A   26182.24989968  .00000344  00000+0  20346-3 0  9999
2 17973  70.8975 154.6437 0032150 214.9774 144.9237 14.14571483 19648
SL-14 R/B               
1 18153U 87055B   26182.23172981  .00000404  00000+0  43599-4 0  9996
2 18153  82.4985 241.9900 0020572   2.5733 357.5585 14.85719989 86796
COSMOS 1867             
1 18187U 87060A   26182.17526686 -.00000033  00000+0  25167-4 0  9997
2 18187  65.0117 348.8834 0016828 282.1409  77.7790 14.31517253 36183
SL-14 R/B               
1 18749U 88001B   26182.23473791  .00000429  00000+0  46646-4 0  9995
2 18749  82.5133  88.5584 0016955 219.1008 140.8984 14.85619199 58884
COSMOS 1933             
1 18958U 88020A   26182.40053105  .00004385  00000+0  20926-3 0  9997
2 18958  82.5135 138.3598 0004984 142.7049 217.4532 15.18809089 67484
SL-3 R/B                
1 19046U 88032B   26182.58602868  .00004333  00000+0  19735-3 0  9993
2 19046  97.5261 165.6132 0025072 192.4528 167.6091 15.20943305 69415
SL-16 R/B               
1 19120U 88039B   26182.42466569  .00000014  00000+0  29274-4 0  9994
2 19120  71.0127 188.0524 0021378 171.4600 188.6894 14.19630775974525
COSMOS 1953             
1 19210U 88050A   26182.07948416  .00009023  00000+0  30733-3 0  9994
2 19210  82.5067  44.0233 0012352  83.8892 276.3755 15.30168431 55119
SL-8 R/B                
1 19257U 88053B   26182.25714639  .00000223  00000+0  80626-4 0  9996
2 19257  74.0476 263.1222 0019292  53.2704   5.3190 14.38973019992931
COSMOS 1975             
1 19573U 88093A   26182.48279063  .00007612  00000+0  26440-3 0  9995
2 19573  82.5186   3.3187 0012375 125.1428 235.0974 15.29512320 36795
SL-14 R/B               
1 19574U 88093B   26182.28107581  .00000463  00000+0  50363-4 0  9998
2 19574  82.5321 295.4134 0021249  26.2477  34.9398 14.85752356 17889
SL-16 R/B               
1 19650U 88102B   26182.48529182  .00000110  00000+0  79539-4 0  9996
2 19650  71.0004 272.0540 0015067 205.6213 154.4165 14.16169137943004
INTERCOSMOS 24          
1 20261U 89080A   26182.31208204  .00000705  00000+0  20126-3 0  9990
2 20261  82.6050  30.4531 1187922  29.1588 337.0801 12.59681487681102
SL-14 R/B               
1 20262U 89080C   26182.24204061  .00000161  00000+0  48849-4 0  9999
2 20262  82.5943 100.2782 1228380 285.2291  61.6455 12.50575687674345
DELTA 1 R/B             
1 20323U 89089B   26182.49664683  .00000331  00000+0  90006-4 0  9994
2 20323  97.0633  11.7650 0070303 122.3273 238.4758 14.50740346912231
ARIANE 40 R/B           
1 20443U 90005H   26182.42874618  .00000285  00000+0  10386-3 0  9991
2 20443  98.2953 239.6017 0009365 216.4388 143.6164 14.39934941909172
DELTA 2 R/B(1)          
1 20453U 90008B   26181.98992557  .00107603  00000+0  72169-3 0  9997
2 20453  35.5999 143.1719 0064292 244.5030 114.9051 15.71023168943879
